     2.11           N: GPS NAV DATA                         RINEX VERSION / TYPE
CONVBIN 2.4.3                           20180214 001536 UTC PGM / RUN BY / DATE 
log: ../RTKBASE/PointsFiles/rover.ubx                       COMMENT             
format: u-blox                                              COMMENT             
                                                            END OF HEADER       
30 18  2 12 10  0  0.0  .104268081486E-03 -.341060513165E-11  .000000000000E+00
     .180000000000E+02  .218750000000E+02  .464162191361E-08 -.244360066797E+01
     .105239450932E-05  .307993881870E-02  .100769102573E-04  .515357459450E+04
     .122400000000E+06 -.204890966415E-07  .232256474213E+01 -.242143869400E-07
     .945148734267E+00  .178062500000E+03 -.311500901535E+01 -.796033157976E-08
    -.434660962517E-09  .100000000000E+01  .198800000000E+04  .000000000000E+00
     .200000000000E+01  .000000000000E+00  .372529029846E-08  .180000000000E+02
     .121896000000E+06  .400000000000E+01
 5 18  2 12 10  0  0.0 -.145127996802E-04  .102318153949E-11  .000000000000E+00
     .300000000000E+02 -.943750000000E+01  .485913097374E-08  .104391235409E+01
    -.210478901863E-06  .526884617284E-02  .983290374279E-05  .515364278412E+04
     .122400000000E+06  .391155481339E-07  .154253422120E+00  .745058059692E-07
     .947989520757E+00  .183531250000E+03  .624818571481E+00 -.811426656320E-08
     .352514683652E-09  .100000000000E+01  .198800000000E+04  .000000000000E+00
     .200000000000E+01  .000000000000E+00 -.107102096081E-07  .300000000000E+02
     .121896000000E+06  .400000000000E+01
 2 18  2 12 10  0  0.0  .202450901270E-03 -.105728759081E-10  .000000000000E+00
     .160000000000E+02 -.109531250000E+03  .474876923387E-08 -.154013702658E+01
    -.536255538464E-05  .177893573418E-01  .715069472790E-05  .515368286514E+04
     .122400000000E+06  .337138772011E-06 -.926704947769E+00  .284984707832E-06
     .949181575165E+00  .230625000000E+03 -.189712722301E+01 -.805962142987E-08
    -.102147111980E-09  .100000000000E+01  .198800000000E+04  .000000000000E+00
     .200000000000E+01  .000000000000E+00 -.204890966415E-07  .160000000000E+02
     .121896000000E+06  .400000000000E+01
 6 18  2 12  9 59 44.0  .414565671235E-03 -.341060513165E-12  .000000000000E+00
     .200000000000E+02 -.114875000000E+03  .431267964042E-08 -.166832309473E+01
    -.585615634918E-05  .109625549521E-02  .845454633236E-05  .515357470894E+04
     .122384000000E+06 -.279396772385E-07 -.876121475736E+00  .242143869400E-07
     .969918965590E+00  .222218750000E+03 -.124653807829E+01 -.791711549392E-08
    -.117147736816E-09  .100000000000E+01  .198800000000E+04  .000000000000E+00
     .200000000000E+01  .000000000000E+00  .465661287308E-08  .200000000000E+02
     .121896000000E+06  .400000000000E+01
13 18  2 12 10  0  0.0 -.955890864134E-04  .000000000000E+00  .000000000000E+00
     .190000000000E+02 -.293750000000E+01  .473198282036E-08 -.119590101225E+01
    -.167638063431E-06  .369388121180E-02  .547990202904E-05  .515365008354E+04
     .122400000000E+06 -.465661287308E-07  .133919507720E+01  .465661287308E-07
     .968322797617E+00  .275375000000E+03  .162490241486E+01 -.811819529828E-08
    -.203579908492E-09  .100000000000E+01  .198800000000E+04  .000000000000E+00
     .200000000000E+01  .000000000000E+00 -.111758708954E-07  .190000000000E+02
     .121896000000E+06  .400000000000E+01
 7 18  2 12 10  0  0.0  .237921252847E-03 -.557065504836E-11  .000000000000E+00
     .230000000000E+02  .173437500000E+02  .427446376286E-08 -.261204577499E+01
     .711530447006E-06  .111668749014E-01  .101402401924E-04  .515369373131E+04
     .122400000000E+06  .204890966415E-07  .228745447124E+01 -.171363353729E-06
     .959479054062E+00  .182968750000E+03 -.254396462508E+01 -.767103381506E-08
    -.400016662300E-09  .100000000000E+01  .198800000000E+04  .000000000000E+00
     .200000000000E+01  .000000000000E+00 -.111758708954E-07  .230000000000E+02
     .121956000000E+06  .400000000000E+01
28 18  2 12 10  0  0.0  .688085798174E-03  .341060513165E-11  .000000000000E+00
     .500000000000E+02  .102687500000E+03  .390801992757E-08  .113706052044E+01
     .512972474098E-05  .197430499829E-01  .732205808163E-05  .515367369461E+04
     .122400000000E+06 -.247731804848E-06 -.288283328661E+01 -.379979610443E-06
     .987084505472E+00  .252531250000E+03 -.152610920752E+01 -.804533512050E-08
     .276440086268E-09  .100000000000E+01  .198800000000E+04  .000000000000E+00
     .280000000000E+01  .000000000000E+00 -.111758708954E-07  .500000000000E+02
     .122016000000E+06  .400000000000E+01
 9 18  2 12  9 59 44.0  .500463880599E-03  .272848410532E-11  .000000000000E+00
     .130000000000E+02  .387500000000E+01  .502913805522E-08  .488381019235E+00
     .109896063805E-06  .117173173930E-02  .545755028725E-05  .515367412567E+04
     .122384000000E+06 -.204890966415E-07  .120899973789E+01 -.931322574615E-08
     .952562093578E+00  .268906250000E+03  .175315545833E+01 -.823141430002E-08
    -.106790162525E-09  .100000000000E+01  .198800000000E+04  .000000000000E+00
     .200000000000E+01  .000000000000E+00  .139698386192E-08  .130000000000E+02
     .122106000000E+06  .400000000000E+01
30 18  2 12 12  0  0.0  .104243401438E-03 -.341060513165E-11  .000000000000E+00
     .810000000000E+02  .153125000000E+02  .467590905610E-08 -.139386939484E+01
     .666826963425E-06  .308045465499E-02  .954419374466E-05  .515357147598E+04
     .129600000000E+06 -.316649675369E-07  .232250760787E+01 -.763684511185E-07
     .945145543643E+00  .188093750000E+03 -.311449703206E+01 -.795676000242E-08
    -.470019578202E-09  .100000000000E+01  .198800000000E+04  .000000000000E+00
     .200000000000E+01  .000000000000E+00  .372529029846E-08  .810000000000E+02
     .122406000000E+06  .400000000000E+01
 5 18  2 12 12  0  0.0 -.145058147609E-04  .102318153949E-11  .000000000000E+00
     .310000000000E+02 -.603125000000E+01  .486877423256E-08  .209417983205E+01
    -.290572643280E-06  .526907620952E-02  .100359320641E-04  .515364213562E+04
     .129600000000E+06 -.130385160446E-06  .154194601110E+00 -.186264514923E-08
     .947992851822E+00  .181000000000E+03  .624753752507E+00 -.800069040373E-08
     .472876840076E-09  .100000000000E+01  .198800000000E+04  .000000000000E+00
     .200000000000E+01  .000000000000E+00 -.107102096081E-07  .310000000000E+02
     .122406000000E+06  .400000000000E+01
 2 18  2 12 12  0  0.0  .202374998480E-03 -.105728759081E-10  .000000000000E+00
     .170000000000E+02 -.104531250000E+03  .489234664302E-08 -.489996876622E+00
    -.537745654583E-05  .177894828375E-01  .800192356110E-05  .515368186378E+04
     .129600000000E+06 -.149011611938E-06 -.926765367749E+00  .199303030968E-06
     .949178824879E+00  .224718750000E+03 -.189708860929E+01 -.854392731744E-08
    -.664313385605E-10  .100000000000E+01  .198800000000E+04  .000000000000E+00
     .200000000000E+01  .000000000000E+00 -.204890966415E-07  .170000000000E+02
     .122406000000E+06  .400000000000E+01
13 18  2 12 12  0  0.0 -.955895520747E-04  .000000000000E+00  .000000000000E+00
     .200000000000E+02 -.187500000000E+01  .478305637635E-08 -.145679017876E+00
     .298023223877E-07  .369400961790E-02  .554695725441E-05  .515365038109E+04
     .129600000000E+06 -.111758708954E-07  .133913628253E+01  .931322574615E-08
     .968321347865E+00  .274875000000E+03  .162487753063E+01 -.815141096756E-08
    -.175721605224E-09  .100000000000E+01  .198800000000E+04  .000000000000E+00
     .200000000000E+01  .000000000000E+00 -.111758708954E-07  .200000000000E+02
     .122406000000E+06  .400000000000E+01
 6 18  2 12 11 59 44.0  .414562877268E-03 -.341060513165E-12  .000000000000E+00
     .580000000000E+02 -.106937500000E+03  .423624788530E-08 -.617282493825E+00
    -.571273267269E-05  .109688949306E-02  .856630504131E-05  .515357670403E+04
     .129584000000E+06 -.204890966415E-07 -.876178766534E+00 -.167638063431E-07
     .969918077598E+00  .219562500000E+03 -.124733922489E+01 -.794961684774E-08
    -.985755346381E-10  .100000000000E+01  .198800000000E+04  .000000000000E+00
     .200000000000E+01  .000000000000E+00  .465661287308E-08  .580000000000E+02
     .122406000000E+06  .400000000000E+01
 9 18  2 12 12  0  0.0  .500483438373E-03  .272848410532E-11  .000000000000E+00
     .140000000000E+02  .250000000000E+01  .505521056981E-08  .154054916864E+01
    -.242143869400E-07  .117190880701E-02  .521540641785E-05  .515367496490E+04
     .129600000000E+06 -.391155481339E-07  .120894031854E+01  .186264514923E-08
     .952561224604E+00  .271843750000E+03  .175350524935E+01 -.825177229087E-08
    -.110004582132E-09  .100000000000E+01  .198800000000E+04  .000000000000E+00
     .200000000000E+01  .000000000000E+00  .139698386192E-08  .140000000000E+02
     .122676000000E+06  .400000000000E+01
 7 18  2 12 12  0  0.0  .237881205976E-03 -.557065504836E-11  .000000000000E+00
     .240000000000E+02  .140312500000E+02  .435232414891E-08 -.156200795615E+01
     .560656189919E-06  .111681205453E-01  .940263271332E-05  .515369020462E+04
     .129600000000E+06  .171363353729E-06  .228739935287E+01 -.191852450371E-06
     .959476154559E+00  .197187500000E+03 -.254383389433E+01 -.771603568957E-08
    -.442161274935E-09  .100000000000E+01  .198800000000E+04  .000000000000E+00
     .200000000000E+01  .000000000000E+00 -.111758708954E-07  .240000000000E+02
     .123006000000E+06  .400000000000E+01
20 18  2 12 12  0  0.0  .500711612403E-03  .909494701773E-12  .000000000000E+00
     .990000000000E+02 -.183125000000E+02  .524200406480E-08  .136498079019E+00
    -.827014446259E-06  .446051079780E-02  .101979821920E-04  .515378549957E+04
     .129600000000E+06 -.111758708954E-07  .685991077596E-01  .931322574615E-08
     .928382616371E+00  .167562500000E+03  .178942330997E+01 -.831356057888E-08
     .430017911972E-09  .100000000000E+01  .198800000000E+04  .000000000000E+00
     .200000000000E+01  .000000000000E+00 -.838190317154E-08  .990000000000E+02
     .123036000000E+06  .400000000000E+01
28 18  2 12 11 59 44.0  .688113737851E-03  .341060513165E-11  .000000000000E+00
     .200000000000E+01  .107343750000E+03  .360300722257E-08  .218486945777E+01
     .540912151337E-05  .197427887470E-01  .683963298798E-05  .515367494202E+04
     .129584000000E+06  .346451997757E-06 -.288288796756E+01 -.670552253723E-07
     .987089217531E+00  .256000000000E+03 -.152607702625E+01 -.739495088653E-08
     .196436753808E-09  .100000000000E+01  .198800000000E+04  .000000000000E+00
     .200000000000E+01  .000000000000E+00 -.111758708954E-07  .200000000000E+01
     .124026000000E+06  .400000000000E+01
